NORAD_CAT_ID,OBJECT_NAME,OBJECT_TYPE,EPOCH,MEAN_MOTION,ECCENTRICITY,INCLINATION,RA_OF_ASC_NODE,ARG_OF_PERICENTER,MEAN_ANOMALY,BSTAR,MEAN_MOTION_DOT,MEAN_MOTION_DDOT,TLE_LINE0,TLE_LINE1,TLE_LINE2,SEMIMAJOR_AXIS,PERIOD,APOGEE,PERIGEE,DECAYED
54804.0,STARLINK-5422,PAYLOAD,2023-06-21 14:00:01,15.08854033,0.000141,53.2143,162.6177,93.7382,83.9788,-0.0015158,-0.0002434,0.0,0 STARLINK-5422,1 54804U 22175AY  23172.58334491 -.00024340  00000-0 -15158-2 0  9997,2 54804  53.2143 162.6177 0001410  93.7382  83.9788 15.08854033  1303,6917.837,95.437,540.678,538.727,0.0
54804.0,STARLINK-5422,PAYLOAD,2023-06-21 22:00:01,15.08837759,0.0001483,53.216,161.1163,93.7222,95.6708,-0.00015479,-2.75e-05,0.0,0 STARLINK-5422,1 54804U 22175AY  23172.91668981 -.00002750  00000-0 -15479-3 0  9996,2 54804  53.2160 161.1163 0001483  93.7222  95.6708 15.08837759 28255,6917.887,95.438,540.778,538.726,0.0
54804.0,STARLINK-5422,PAYLOAD,2023-06-23 00:11:26,15.08843087,0.0001535,53.2154,156.2201,93.3342,266.7826,8.9316e-05,1.134e-05,0.0,0 STARLINK-5422,1 54804U 22175AY  23174.00794504  .00001134  00000-0  89316-4 0  9994,2 54804  53.2154 156.2201 0001535  93.3342 266.7826 15.08843087 28414,6917.871,95.437,540.798,538.674,0.0
54804.0,STARLINK-5422,PAYLOAD,2023-06-24 07:59:08,15.08850273,0.0001465,53.216,150.2735,96.3207,263.7952,0.00010653,1.408e-05,0.0,0 STARLINK-5422,1 54804U 22175AY  23175.33273851  .00001408  00000-0  10653-3 0  9999,2 54804  53.2160 150.2735 0001465  96.3207 263.7952 15.08850273 28616,6917.849,95.437,540.727,538.701,0.0
54804.0,STARLINK-5422,PAYLOAD,2023-06-24 15:56:04,15.08842164,0.0001427,53.215,148.786,97.0008,263.1147,7.4521e-05,8.98e-06,0.0,0 STARLINK-5422,1 54804U 22175AY  23175.66394374  .00000898  00000-0  74521-4 0  9996,2 54804  53.2150 148.7860 0001427  97.0008 263.1147 15.08842164 28666,6917.874,95.437,540.726,538.752,0.0
54804.0,STARLINK-5422,PAYLOAD,2023-06-26 02:54:33,15.08844931,0.0001497,53.2164,142.2447,94.535,265.5813,5.5723e-05,5.99e-06,0.0,0 STARLINK-5422,1 54804U 22175AY  23177.12122199  .00000599  00000-0  55723-4 0  9994,2 54804  53.2164 142.2447 0001497  94.5350 265.5813 15.08844931 28884,6917.865,95.437,540.766,538.695,0.0
54804.0,STARLINK-5422,PAYLOAD,2023-06-27 04:20:44,15.08837349,0.0001334,53.2162,137.4873,90.0399,270.0746,8.2871e-05,1.031e-05,0.0,0 STARLINK-5422,1 54804U 22175AY  23178.18106742  .00001031  00000-0  82871-4 0  9993,2 54804  53.2162 137.4873 0001334  90.0399 270.0746 15.08837349 29045,6917.888,95.438,540.676,538.831,0.0
54804.0,STARLINK-5422,PAYLOAD,2023-06-28 05:46:54,15.08837799,0.000128,53.2171,132.7301,89.6434,270.4705,3.8892e-05,3.31e-06,0.0,0 STARLINK-5422,1 54804U 22175AY  23179.24091128  .00000331  00000-0  38892-4 0  9998,2 54804  53.2171 132.7301 0001280  89.6434 270.4705 15.08837799 29209,6917.887,95.438,540.638,538.867,0.0
54804.0,STARLINK-5422,PAYLOAD,2023-06-29 07:13:04,15.08843007,0.0001268,53.217,127.9723,89.33,270.7837,0.00011662,1.569e-05,0.0,0 STARLINK-5422,1 54804U 22175AY  23180.30074808  .00001569  00000-0  11662-3 0  9992,2 54804  53.2170 127.9723 0001268  89.3300 270.7837 15.08843007 29362,6917.871,95.437,540.613,538.859,0.0
54804.0,STARLINK-5422,PAYLOAD,2023-06-30 13:25:24,15.08835174,0.0001425,53.2178,122.3207,87.1888,272.9267,3.5601e-05,2.79e-06,0.0,0 STARLINK-5422,1 54804U 22175AY  23181.55931690  .00000279  00000-0  35601-4 0  9998,2 54804  53.2178 122.3207 0001425  87.1888 272.9267 15.08835174 29556,6917.895,95.438,540.746,538.774,0.0
54804.0,STARLINK-5422,PAYLOAD,2023-07-02 01:59:16,15.08846979,0.0001395,53.2171,115.4831,88.7724,271.3428,0.00012597,1.718e-05,0.0,0 STARLINK-5422,1 54804U 22175AY  23183.08282975  .00001718  00000-0  12597-3 0  9990,2 54804  53.2171 115.4831 0001395  88.7724 271.3428 15.08846979 29789,6917.859,95.437,540.689,538.759,0.0
54804.0,STARLINK-5422,PAYLOAD,2023-07-03 01:50:03,15.08841215,0.0001289,53.2166,111.0232,91.9412,268.1727,0.00016783,2.384e-05,0.0,0 STARLINK-5422,1 54804U 22175AY  23184.07643395  .00002384  00000-0  16783-3 0  9998,2 54804  53.2166 111.0232 0001289  91.9412 268.1727 15.08841215 29933,6917.877,95.437,540.633,538.85,0.0
54804.0,STARLINK-5422,PAYLOAD,2023-07-04 01:40:51,15.08841532,0.0001318,53.2167,106.5619,89.6875,270.4268,2.4495e-05,1.02e-06,0.0,0 STARLINK-5422,1 54804U 22175AY  23185.07003635  .00000102  00000-0  24495-4 0  9992,2 54804  53.2167 106.5619 0001318  89.6875 270.4268 15.08841532 30088,6917.876,95.437,540.652,538.829,0.0
54804.0,STARLINK-5422,PAYLOAD,2023-07-05 04:42:23,15.08848248,0.000136,53.2164,101.5083,92.8667,267.2481,0.00014949,2.093e-05,0.0,0 STARLINK-5422,1 54804U 22175AY  23186.19611107  .00002093  00000-0  14949-3 0  9998,2 54804  53.2164 101.5083 0001360  92.8667 267.2481 15.08848248 30258,6917.855,95.437,540.661,538.779,0.0
54804.0,STARLINK-5422,PAYLOAD,2023-07-05 11:03:56,15.08840251,0.0001216,53.2163,100.3184,85.8595,274.2536,1.8761e-05,1.1e-07,0.0,0 STARLINK-5422,1 54804U 22175AY  23186.46107493  .00000011  00000-0  18761-4 0  9991,2 54804  53.2163 100.3184 0001216  85.8595 274.2536 15.08840251 30297,6917.88,95.438,540.586,538.903,0.0
54804.0,STARLINK-5422,PAYLOAD,2023-07-06 01:22:25,15.08833792,0.0001217,53.217,97.6421,87.8306,272.2825,4.7176e-05,4.63e-06,0.0,0 STARLINK-5422,1 54804U 22175AY  23187.05724402  .00000463  00000-0  47176-4 0  9995,2 54804  53.2170  97.6421 0001217  87.8306 272.2825 15.08833792 30381,6917.899,95.438,540.606,538.922,0.0
54804.0,STARLINK-5422,PAYLOAD,2023-07-06 18:51:39,15.08843075,0.0001159,53.2177,94.3709,87.6676,272.4448,5.5441e-05,5.95e-06,0.0,0 STARLINK-5422,1 54804U 22175AY  23187.78587847  .00000595  00000-0  55441-4 0  9995,2 54804  53.2177  94.3709 0001159  87.6676 272.4448 15.08843075 30494,6917.871,95.437,540.538,538.934,0.0
54804.0,STARLINK-5422,PAYLOAD,2023-07-07 17:07:04,15.08837123,0.0001252,53.2182,90.2083,89.7985,270.315,9.3491e-05,1.2e-05,0.0,0 STARLINK-5422,1 54804U 22175AY  23188.71324143  .00001200  00000-0  93491-4 0  9998,2 54804  53.2182  90.2083 0001252  89.7985 270.3150 15.08837123 30630,6917.889,95.438,540.62,538.888,0.0
54804.0,STARLINK-5422,PAYLOAD,2023-07-08 02:39:22,15.0884592,0.0001062,53.2175,88.4233,94.9301,265.1813,0.00013464,1.856e-05,0.0,0 STARLINK-5422,1 54804U 22175AY  23189.11067455  .00001856  00000-0  13464-3 0  9991,2 54804  53.2175  88.4233 0001062  94.9301 265.1813 15.08845920 30695,6917.862,95.437,540.462,538.993,0.0
54804.0,STARLINK-5422,PAYLOAD,2023-07-08 10:36:18,15.08840674,0.0001056,53.218,86.9367,88.9624,271.1489,7.5285e-05,9.11e-06,0.0,0 STARLINK-5422,1 54804U 22175AY  23189.44187968  .00000911  00000-0  75285-4 0  9990,2 54804  53.2180  86.9367 0001056  88.9624 271.1489 15.08840674 30749,6917.878,95.438,540.474,539.013,0.0
54804.0,STARLINK-5422,PAYLOAD,2023-07-09 10:27:05,15.08834473,9.73e-05,53.2178,82.4744,106.9624,253.1475,7.0691e-05,8.37e-06,0.0,0 STARLINK-5422,1 54804U 22175AY  23190.43548399  .00000837  00000-0  70691-4 0  9993,2 54804  53.2178  82.4744 0000973 106.9624 253.1475 15.08834473 30895,6917.897,95.438,540.435,539.089,0.0
54804.0,STARLINK-5422,PAYLOAD,2023-07-10 16:39:25,15.08828906,0.0001157,53.2174,76.8262,93.601,266.5114,0.00024738,3.65e-05,0.0,0 STARLINK-5422,1 54804U 22175AY  23191.69404491  .00003650  00000-0  24738-3 0  9992,2 54804  53.2174  76.8262 0001157  93.6010 266.5114 15.08828906 31083,6917.914,95.438,540.58,538.979,0.0
54804.0,STARLINK-5422,PAYLOAD,2023-07-11 02:11:43,15.08850264,0.0001209,53.2179,75.0416,92.1467,267.9663,7.6098e-05,9.24e-06,0.0,0 STARLINK-5422,1 54804U 22175AY  23192.09147573  .00000924  00000-0  76098-4 0  9990,2 54804  53.2179  75.0416 0001209  92.1467 267.9663 15.08850264 31141,6917.849,95.437,540.55,538.878,0.0
54804.0,STARLINK-5422,PAYLOAD,2023-07-11 22:51:45,15.08837738,0.0001198,53.2178,71.1755,93.2301,266.8829,5.6973e-05,6.19e-06,0.0,0 STARLINK-5422,1 54804U 22175AY  23192.95260477  .00000619  00000-0  56973-4 0  9995,2 54804  53.2178  71.1755 0001198  93.2301 266.8829 15.08837738 31276,6917.887,95.438,540.581,538.924,0.0
54804.0,STARLINK-5422,PAYLOAD,2023-07-13 16:11:47,15.0883555,9.43e-05,53.2182,63.4469,97.6529,262.457,-3.2343e-06,-3.39e-06,0.0,0 STARLINK-5422,1 54804U 22175AY  23194.67485139 -.00000339  00000-0 -32343-5 0  9997,2 54804  53.2182  63.4469 0000943  97.6529 262.4570 15.08835550 31538,6917.894,95.438,540.411,539.107,0.0
54804.0,STARLINK-5422,PAYLOAD,2023-07-14 01:44:05,15.08840725,9.21e-05,53.2182,61.6627,95.787,264.3227,3.6911e-05,3e-06,0.0,0 STARLINK-5422,1 54804U 22175AY  23195.07228768  .00000300  00000-0  36911-4 0  9995,2 54804  53.2182  61.6627 0000921  95.7870 264.3227 15.08840725 31594,6917.878,95.438,540.38,539.106,0.0
54804.0,STARLINK-5422,PAYLOAD,2023-07-14 23:59:28,15.08849567,0.000109,53.2178,57.4991,89.3906,270.7211,0.000161,2.276e-05,0.0,0 STARLINK-5422,1 54804U 22175AY  23195.99964112  .00002276  00000-0  16100-3 0  9997,2 54804  53.2178  57.4991 0001090  89.3906 270.7211 15.08849567 31736,6917.851,95.437,540.47,538.962,0.0
54804.0,STARLINK-5422,PAYLOAD,2023-07-15 23:50:16,15.08837935,8.39e-05,53.2186,53.0355,96.8857,263.2231,6.205e-05,7e-06,0.0,0 STARLINK-5422,1 54804U 22175AY  23196.99325130  .00000700  00000-0  62050-4 0  9995,2 54804  53.2186  53.0355 0000839  96.8857 263.2231 15.08837935 31880,6917.887,95.438,540.332,539.171,0.0
54804.0,STARLINK-5422,PAYLOAD,2023-07-16 23:41:03,15.08848671,9.49e-05,53.2185,48.5746,103.6173,256.4925,-2.031e-05,-6.11e-06,0.0,0 STARLINK-5422,1 54804U 22175AY  23197.98684707 -.00000611  00000-0 -20310-4 0  9999,2 54804  53.2185  48.5746 0000949 103.6173 256.4925 15.08848671 32033,6917.854,95.437,540.375,539.062,0.0
54804.0,STARLINK-5422,PAYLOAD,2023-07-17 23:31:49,15.0885123,9.19e-05,53.2182,44.1153,90.4315,269.6782,0.00018163,2.605e-05,0.0,0 STARLINK-5422,1 54804U 22175AY  23198.98043951  .00002605  00000-0  18163-3 0  9995,2 54804  53.2182  44.1153 0000919  90.4315 269.6782 15.08851230 32180,6917.846,95.437,540.347,539.075,0.0
